     2.100          NAVIGATION                              RINEX VERSION / TYPE
fic2rin                                 03/19/2018 00:04:22 PGM / RUN BY / DATE
                                                            END OF HEADER
 1 18  3 18  8  0  0.0 -.348640605807D-04 -.227373675443D-11  .000000000000D+00
     .420000000000D+02  .134062500000D+02  .493770567526D-08 -.175584052743D+01
     .601634383202D-06  .746128510218D-02  .271201133728D-05  .515366313934D+04
     .288000000000D+05  .726431608200D-07 -.149387651843D+01 -.968575477600D-07
     .970070689212D+00  .330875000000D+03  .610452382398D+00 -.841499337539D-08
     .210008747707D-09  .100000000000D+01  .199300000000D+04  .000000000000D+00
     .240000000000D+01  .000000000000D+00  .558793544769D-08  .420000000000D+02
     .216060000000D+05  .400000000000D+01
 3 18  3 18  8  0  0.0  .311685726047D-04  .829913915368D-11  .000000000000D+00
     .890000000000D+02 -.846562500000D+02  .453947480163D-08 -.266984943971D+01
    -.437349081039D-05  .123375363182D-02  .986084342003D-05  .515380316353D+04
     .288000000000D+05  .242143869400D-07 -.450789490060D+00 -.651925802231D-07
     .961103918636D+00  .185687500000D+03  .503176266100D+00 -.810640909305D-08
    -.547879964257D-09  .100000000000D+01  .199300000000D+04  .000000000000D+00
     .240000000000D+01  .000000000000D+00  .232830643654D-08  .890000000000D+02
     .216060000000D+05  .400000000000D+01
 5 18  3 18  8  0  0.0 -.118454918265D-04  .909494701773D-12  .000000000000D+00
     .460000000000D+02 -.920937500000D+02  .496842124040D-08  .122370572627D+01
    -.452250242233D-05  .527744577266D-02  .898912549019D-05  .515366590881D+04
     .288000000000D+05 -.298023223877D-07 -.471632343712D+00  .391155481339D-07
     .947990050334D+00  .201750000000D+03  .617404052077D+00 -.834749056363D-08
    -.566452166435D-09  .100000000000D+01  .199300000000D+04  .000000000000D+00
     .240000000000D+01  .000000000000D+00 -.107102096081D-07  .460000000000D+02
     .216060000000D+05  .400000000000D+01
 6 18  3 18  8  0  0.0  .412293244153D-03 -.113686837722D-11  .000000000000D+00
     .590000000000D+02  .213750000000D+02  .497092134454D-08 -.154111101111D+01
     .115670263767D-05  .119106948841D-02  .315159559250D-05  .515358206940D+04
     .288000000000D+05 -.763684511185D-07 -.150221409526D+01  .167638063431D-07
     .969797397097D+00  .325718750000D+03 -.118098437391D+01 -.845035199108D-08
     .151792037033D-09  .100000000000D+01  .199300000000D+04  .000000000000D+00
     .240000000000D+01  .000000000000D+00  .465661287308D-08  .590000000000D+02
     .216060000000D+05  .400000000000D+01
 7 18  3 18  8  0  0.0  .221311114728D-03 -.579802872380D-11  .000000000000D+00
     .440000000000D+02  .124375000000D+02  .495306345783D-08 -.244766982581D+01
     .515952706337D-06  .112691707909D-01  .297278165817D-05  .515367358780D+04
     .288000000000D+05 -.372529029846D-08  .166124761683D+01 -.132247805595D-06
     .958842099531D+00  .321968750000D+03 -.254305742130D+01 -.835784813792D-08
     .163221084528D-09  .100000000000D+01  .199300000000D+04  .000000000000D+00
     .240000000000D+01  .000000000000D+00 -.111758708954D-07  .440000000000D+02
     .216060000000D+05  .400000000000D+01
 8 18  3 18  8  0  0.0 -.947508960962D-04 -.125055521494D-11  .000000000000D+00
     .590000000000D+02  .692187500000D+02  .415267297550D-08  .739660358806D+00
     .360980629921D-05  .342246121727D-02  .115614384413D-04  .515378245163D+04
     .288000000000D+05  .782310962677D-07 -.255856958288D+01 -.298023223877D-07
     .968990139883D+00  .159343750000D+03 -.499501019434D+00 -.790390065776D-08
     .473233997810D-09  .100000000000D+01  .199300000000D+04  .000000000000D+00
     .240000000000D+01  .000000000000D+00  .558793544769D-08  .590000000000D+02
     .216060000000D+05  .400000000000D+01
 9 18  3 18  8  0  0.0  .507229939103D-03  .193267624127D-11  .000000000000D+00
     .430000000000D+02  .596875000000D+02  .445661420730D-08  .607430305248D+00
     .301189720631D-05  .111068389378D-02  .118650496006D-04  .515366959763D+04
     .288000000000D+05  .186264514923D-08  .582969889253D+00 -.167638063431D-07
     .953179399657D+00  .145218750000D+03  .180498985698D+01 -.801961976364D-08
     .314655963827D-09  .100000000000D+01  .199300000000D+04  .000000000000D+00
     .240000000000D+01  .000000000000D+00  .139698386192D-08  .430000000000D+02
     .216060000000D+05  .400000000000D+01
10 18  3 18  8  0  0.0  .171244610101D-03  .363797880709D-11  .000000000000D+00
     .370000000000D+02 -.805625000000D+02  .454304637897D-08  .243985769112D+01
    -.418536365032D-05  .338678166736D-02  .993534922600D-05  .515367250443D+04
     .288000000000D+05 -.968575477600D-07 -.454283408030D+00  .130385160446D-07
     .961208837658D+00  .190437500000D+03 -.278892279803D+01 -.803890628129D-08
    -.482877256633D-09  .100000000000D+01  .199300000000D+04  .000000000000D+00
     .240000000000D+01  .000000000000D+00  .186264514923D-08  .370000000000D+02
     .216060000000D+05  .400000000000D+01
11 18  3 18  8  0  0.0 -.737413764000D-03 -.227373675443D-12  .000000000000D+00
     .750000000000D+02  .927500000000D+02  .612418366826D-08 -.247729292359D+01
     .485032796860D-05  .167321924819D-01  .383704900742D-05  .515361569595D+04
     .288000000000D+05  .189989805222D-06 -.191637446752D+01  .130385160446D-06
     .904178132043D+00  .269093750000D+03  .174505584268D+01 -.878286584162D-08
     .566095008701D-09  .100000000000D+01  .199300000000D+04  .000000000000D+00
     .240000000000D+01  .000000000000D+00 -.121071934700D-07  .750000000000D+02
     .216060000000D+05  .400000000000D+01
12 18  3 18  8  0  0.0  .344712752849D-03 -.216004991671D-11  .000000000000D+00
     .105000000000D+03 -.778125000000D+02  .369015370971D-08 -.303730484590D+01
    -.401027500629D-05  .708714185748D-02  .105835497379D-04  .515363019371D+04
     .288000000000D+05 -.745058059692D-08  .275239039375D+01 -.540167093277D-07
     .987397433889D+00  .188968750000D+03  .936294511830D+00 -.756602944121D-08
    -.362872257943D-09  .100000000000D+01  .199300000000D+04  .000000000000D+00
     .240000000000D+01  .000000000000D+00 -.125728547573D-07  .105000000000D+03
     .216060000000D+05  .400000000000D+01
13 18  3 18  8  0  0.0 -.954959541559D-04  .113686837722D-12  .000000000000D+00
     .310000000000D+02  .641875000000D+02  .428410702168D-08 -.101746456096D+01
     .336021184921D-05  .360640988220D-02  .104177743196D-04  .515366333389D+04
     .288000000000D+05 -.596046447754D-07  .713595126067D+00  .558793544769D-08
     .968865259344D+00  .180093750000D+03  .161772594295D+01 -.799176146037D-08
     .343942898031D-09  .100000000000D+01  .199300000000D+04  .000000000000D+00
     .240000000000D+01  .000000000000D+00 -.111758708954D-07  .310000000000D+02
     .216060000000D+05  .400000000000D+01
14 18  3 18  8  0  0.0 -.952570699155D-04 -.454747350886D-12  .000000000000D+00
     .370000000000D+02  .760625000000D+02  .447518640948D-08  .723567225651D-01
     .405684113503D-05  .947469577659D-02  .104065984488D-04  .515375023270D+04
     .288000000000D+05 -.122934579849D-06  .672174367858D+00  .149011611938D-06
     .961446077620D+00  .181562500000D+03 -.195890777932D+01 -.819891294621D-08
     .333585323739D-09  .100000000000D+01  .199300000000D+04  .000000000000D+00
     .240000000000D+01  .000000000000D+00 -.977888703346D-08  .370000000000D+02
     .216060000000D+05  .400000000000D+01
15 18  3 18  8  0  0.0 -.356325879693D-03  .341060513165D-12  .000000000000D+00
     .470000000000D+02  .520000000000D+02  .509664086698D-08 -.442653121525D+00
     .271946191788D-05  .101749543101D-01  .110901892185D-04  .515371310425D+04
     .288000000000D+05  .596046447754D-07  .514002785913D+00  .139698386192D-06
     .928784896899D+00  .148218750000D+03  .671883977156D+00 -.845856661897D-08
     .185007706314D-09  .100000000000D+01  .199300000000D+04  .000000000000D+00
     .240000000000D+01  .000000000000D+00 -.107102096081D-07  .470000000000D+02
     .216060000000D+05  .400000000000D+01
16 18  3 18  8  0  0.0  .299885869026D-04 -.909494701773D-12  .000000000000D+00
     .390000000000D+02 -.622500000000D+02  .374872757812D-08  .134517616803D+01
    -.312738120556D-05  .999522011261D-02  .110752880573D-04  .515360339928D+04
     .288000000000D+05 -.558793544769D-07  .277127495454D+01  .102445483208D-06
     .987845537400D+00  .182343750000D+03  .483222835919D+00 -.774103673097D-08
    -.542879755978D-09  .100000000000D+01  .199300000000D+04  .000000000000D+00
     .240000000000D+01  .000000000000D+00 -.107102096081D-07  .390000000000D+02
     .216060000000D+05  .400000000000D+01
17 18  3 18  8  0  0.0 -.114773400128D-03  .318323145621D-11  .000000000000D+00
     .680000000000D+02  .652500000000D+02  .397838000121D-08  .291723405394D+00
     .326521694660D-05  .122965968912D-01  .114142894745D-04  .515378166580D+04
     .288000000000D+05 -.154599547386D-06 -.249703752807D+01  .204890966415D-07
     .982360587924D+00  .172000000000D+03 -.178327544648D+01 -.797426073140D-08
     .470376735936D-09  .100000000000D+01  .199300000000D+04  .000000000000D+00
     .240000000000D+01  .000000000000D+00 -.111758708954D-07  .680000000000D+02
     .216060000000D+05  .400000000000D+01
18 18  3 18  8  0  0.0 -.108485110104D-04 -.143245415529D-10  .000000000000D+00
     .500000000000D+01  .204687500000D+02  .537022369137D-08 -.204320113368D+01
     .118091702461D-05  .142950301524D-01  .212341547012D-05  .515367019081D+04
     .288000000000D+05  .225380063057D-06 -.153947335624D+01  .149011611938D-07
     .948406585535D+00  .328500000000D+03  .129532381857D+01 -.853428405862D-08
     .254296306748D-09  .100000000000D+01  .199300000000D+04  .000000000000D+00
     .240000000000D+01  .630000000000D+02 -.651925802231D-08  .500000000000D+01
     .216060000000D+05  .400000000000D+01
